STARLINK-37303          
1 68709U 26081L   26113.52165252 -.00737452  00000+0 -33667-2 0  9994
2 68709  53.1598 196.1833 0002503 356.5258   3.5749 15.84820410  1460
